GAOFEN-11 01            
1 43585U 18063A   26183.61270999  .00019755  00000+0  28790-3 0  9991
2 43585  97.1282 250.4524 0002084 270.1074  89.9942 15.55741508442746
ICESAT-2                
1 43613U 18070A   26183.54254651  .00010128  00000+0  36893-3 0  9998
2 43613  92.0095 295.1279 0006106  92.0321 268.1627 15.28155595434806
HYSIS                   
1 43719U 18096A   26183.57280001  .00001530  00000+0  21597-3 0  9996
2 43719  97.9837 250.2002 0001880  88.7953 271.3473 14.78649902409692
KAZSTSAT                
1 43783U 18099AB  26183.57498710  .00002131  00000+0  17615-3 0  9992
2 43783  97.4302 214.8068 0008298  26.1477 334.0165 14.99922730413618
SAUDISAT 5A             
1 43831U 18102A   26183.61858359  .00005986  00000+0  22004-3 0  9994
2 43831  97.3057 244.9030 0011204  82.4740 277.7772 15.28208754418034
SAUDISAT 5B             
1 43833U 18102C   26183.63487468  .00005931  00000+0  21638-3 0  9999
2 43833  97.3166 248.0166 0011928  84.1553 276.1047 15.28457829418156
GAOFEN-10R              
1 44622U 19066A   26183.60448313  .00001354  00000+0  17320-3 0  9997
2 44622  98.0503 137.2961 0007194  85.3924 274.8111 14.83034643364661
CARTOSAT-3              
1 44804U 19081A   26183.63529012  .00005852  00000+0  28020-3 0  9991
2 44804  97.4299 245.2536 0013413  99.6865 260.5885 15.19252017365814
GAOFEN-12 01            
1 44819U 19082A   26183.62487441  .00000452  00000+0  65700-4 0  9994
2 44819  97.8103 189.5969 0001640  55.0168 305.1198 14.80471360356374
CSG-1                   
1 44873U 19092A   26183.64626236  .00000494  00000+0  68568-4 0  9995
2 44873  97.8891   7.0250 0001415  91.2548 268.8827 14.82157746353764
NEMO-HD                 
1 46277U 20061F   26183.61176856  .00011294  00000+0  24208-3 0  9990
2 46277  97.1908 245.4113 0001477  73.4986 286.6425 15.44909290324362
SENTINEL-6A             
1 46984U 20086A   26183.15413938 -.00000048  00000+0  54852-4 0  9991
2 46984  66.0412 103.9669 0007838 270.0176  89.9941 12.80929970262248
CAS500-1                
1 47932U 21022A   26183.59763080  .00007370  00000+0  34371-3 0  9997
2 47932  97.3882  78.5381 0003581 221.8326 138.2636 15.20147466293107
GAOFEN-12 02            
1 48079U 21026A   26183.63759274  .00000409  00000+0  60586-4 0  9993
2 48079  97.9926 181.7552 0004909 167.2321 192.9017 14.80308223284043
PLEIADES NEO 3          
1 48268U 21034A   26183.65055138  .00000568  00000+0  78760-4 0  9991
2 48268  97.8940 258.1948 0001396  89.6919 270.4454 14.81675525279946
PLEIADES NEO 4          
1 49070U 21073E   26183.61677307  .00000337  00000+0  49403-4 0  9996
2 49070  97.8937 258.1578 0001301  97.1402 262.9959 14.81666752263659
LANDSAT 9               
1 49260U 21088A   26183.44125619  .00000403  00000+0  99641-4 0  9991
2 49260  98.2276 253.4337 0001188  87.6430 272.4905 14.57107937253227
CSG-2                   
1 51444U 22008A   26183.61250032  .00000862  00000+0  11486-3 0  9997
2 51444  97.8882   6.9860 0001577  86.5287 273.6107 14.82156906238873
GAOFEN-12 03            
1 52912U 22069A   26183.67020932  .00000934  00000+0  13001-3 0  9990
2 52912  97.8264  71.1494 0002464  85.6406 274.5088 14.80059385216903
SWOT                    
1 54754U 22173A   26183.56528021  .00000106  00000+0  73592-4 0  9995
2 54754  77.6101  14.5492 0000323  87.8469 272.2720 14.00171405181302
GAOFEN-12 04            
1 57654U 23123A   26183.61975889  .00001141  00000+0  15854-3 0  9993
2 57654  97.9113 101.4103 0003938  75.5600 284.6048 14.79756089154913
PARS 1                  
1 59065U 24039Q   26183.65560633  .00011976  00000+0  24635-3 0  9993
2 59065  97.4833 165.0659 0011081  66.0894 294.1514 15.46053228131037
RESURS-P 4              
1 59371U 24061A   26183.61080706  .00003450  00000+0  11337-3 0  9995
2 59371  97.2761 131.2419 0003055 107.8678 252.2898 15.32218843126125
LEGION 1                
1 59625U 24081A   26183.53292974  .00003912  00000+0  20257-3 0  9996
2 59625  97.5015 261.2267 0008090 322.0236  38.0426 15.16771509119867
LEGION 2                
1 59626U 24081B   26183.56313135  .00004615  00000+0  23842-3 0  9997
2 59626  97.5015 261.3537 0009864 283.8855  76.1281 15.16749591119879
ALOS-4 (DAICHI-4)       
1 60182U 24123A   26183.57881324  .00001755  00000+0  24175-3 0  9996
2 60182  97.9220 280.5340 0001615  97.3123 262.8272 14.79475374108153
LEGION 3                
1 60452U 24146A   26183.61577740  .00005038  00000+0  27426-3 0  9990
2 60452  45.0022 307.8109 0008797 269.5944  90.3926 15.15584285104367
LEGION 4                
1 60453U 24146B   26183.61836031  .00004871  00000+0  26127-3 0  9993
2 60453  45.0025  39.6997 0011909  34.1545 326.0097 15.16156870103215
SENTINEL-2C             
1 60989U 24157A   26183.48721480  .00000124  00000+0  64098-4 0  9992
2 60989  98.5685 258.0522 0000908  89.1020 271.0267 14.30811725 95175
IONOSFERA-M 1           
1 61735U 24199A   26183.59515598  .00000073  00000+0  52147-4 0  9996
2 61735  98.7152  56.6034 0002210  89.9004 270.2428 14.22757190129897
