OBJECT_NAME,OBJECT_ID,EPOCH,MEAN_MOTION,ECCENTRICITY,INCLINATION,RA_OF_ASC_NODE,ARG_OF_PERICENTER,MEAN_ANOMALY,EPHEMERIS_TYPE,CLASSIFICATION_TYPE,NORAD_CAT_ID,ELEMENT_SET_NO,REV_AT_EPOCH,BSTAR,MEAN_MOTION_DOT,MEAN_MOTION_DDOT
GAOFEN-11 01,2018-063A,2026-07-02T14:42:18.143136,15.55741508,.00020849,97.1282,250.4524,270.1074,89.9942,0,U,43585,999,44274,.28789844E-3,.19755E-3,0
ICESAT-2,2018-070A,2026-07-02T13:01:16.018464,15.28155595,.00061064,92.0095,295.1279,92.0321,268.1627,0,U,43613,999,43480,.36892523E-3,.10128E-3,0
HYSIS,2018-096A,2026-07-02T13:44:49.920864,14.78649902,.00018807,97.9837,250.2002,88.7953,271.3473,0,U,43719,999,40969,.21597052E-3,.153E-4,0
KAZSTSAT,2018-099AB,2026-07-02T13:47:58.885440,14.99922730,.00082988,97.4302,214.8068,26.1477,334.0165,0,U,43783,999,41361,.17615329E-3,.2131E-4,0
SAUDISAT 5A,2018-102A,2026-07-02T14:50:45.622176,15.28208754,.00112044,97.3057,244.9030,82.4740,277.7772,0,U,43831,999,41803,.22004372E-3,.5986E-4,0
SAUDISAT 5B,2018-102C,2026-07-02T15:14:13.172352,15.28457829,.00119284,97.3166,248.0166,84.1553,276.1047,0,U,43833,999,41815,.21638204E-3,.5931E-4,0
GAOFEN-10R,2019-066A,2026-07-02T14:30:27.342432,14.83034643,.00071941,98.0503,137.2961,85.3924,274.8111,0,U,44622,999,36466,.17320282E-3,.1354E-4,0
CARTOSAT-3,2019-081A,2026-07-02T15:14:49.066368,15.19252017,.0013413,97.4299,245.2536,99.6865,260.5885,0,U,44804,999,36581,.28019811E-3,.5852E-4,0
GAOFEN-12 01,2019-082A,2026-07-02T14:59:49.149024,14.80471360,.00016401,97.8103,189.5969,55.0168,305.1198,0,U,44819,999,35637,.65700388E-4,.452E-5,0
CSG-1,2019-092A,2026-07-02T15:30:37.067904,14.82157746,.00014153,97.8891,7.0250,91.2548,268.8827,0,U,44873,999,35376,.68567575E-4,.494E-5,0
NEMO-HD,2020-061F,2026-07-02T14:40:56.803584,15.44909290,.00014771,97.1908,245.4113,73.4986,286.6425,0,U,46277,999,32436,.24207807E-3,.11294E-3,0
SENTINEL-6A,2020-086A,2026-07-02T03:41:57.642432,12.80929970,.0007838,66.0412,103.9669,270.0176,89.9941,0,U,46984,999,26224,.5485158E-4,-.48E-6,0
CAS500-1,2021-022A,2026-07-02T14:20:35.301120,15.20147466,.00035813,97.3882,78.5381,221.8326,138.2636,0,U,47932,999,29310,.34371248E-3,.737E-4,0
GAOFEN-12 02,2021-026A,2026-07-02T15:18:08.012736,14.80308223,.00049094,97.9926,181.7552,167.2321,192.9017,0,U,48079,999,28404,.60586391E-4,.409E-5,0
PLEIADES NEO 3,2021-034A,2026-07-02T15:36:47.639232,14.81675525,.0001396,97.8940,258.1948,89.6919,270.4454,0,U,48268,999,27994,.78759551E-4,.568E-5,0
PLEIADES NEO 4,2021-073E,2026-07-02T14:48:09.193248,14.81666752,.00013013,97.8937,258.1578,97.1402,262.9959,0,U,49070,999,26365,.49403086E-4,.337E-5,0
LANDSAT 9,2021-088A,2026-07-02T10:35:24.534816,14.57107937,.00011887,98.2276,253.4337,87.6430,272.4905,0,U,49260,999,25322,.9964107E-4,.403E-5,0
CSG-2,2022-008A,2026-07-02T14:42:00.027648,14.82156906,.00015772,97.8882,6.9860,86.5287,273.6107,0,U,51444,999,23887,.11485946E-3,.862E-5,0
GAOFEN-12 03,2022-069A,2026-07-02T16:05:06.085248,14.80059385,.00024641,97.8264,71.1494,85.6406,274.5088,0,U,52912,999,21690,.1300053E-3,.934E-5,0
SWOT,2022-173A,2026-07-02T13:34:00.210144,14.00171405,.0000323,77.6101,14.5492,87.8469,272.2720,0,U,54754,999,18130,.73592121E-4,.106E-5,0
GAOFEN-12 04,2023-123A,2026-07-02T14:52:27.168096,14.79756089,.00039386,97.9113,101.4103,75.5600,284.6048,0,U,57654,999,15491,.15853825E-3,.1141E-4,0
PARS 1,2024-039Q,2026-07-02T15:44:04.386912,15.46053228,.00110819,97.4833,165.0659,66.0894,294.1514,0,U,59065,999,13103,.24634955E-3,.11976E-3,0
RESURS-P 4,2024-061A,2026-07-02T14:39:33.729984,15.32218843,.00030552,97.2761,131.2419,107.8678,252.2898,0,U,59371,999,12612,.11336914E-3,.345E-4,0
LEGION 1,2024-081A,2026-07-02T12:47:25.129536,15.16771509,.00080906,97.5015,261.2267,322.0236,38.0426,0,U,59625,999,11986,.20257156E-3,.3912E-4,0
LEGION 2,2024-081B,2026-07-02T13:30:54.548640,15.16749591,.00098641,97.5015,261.3537,283.8855,76.1281,0,U,59626,999,11987,.23841511E-3,.4615E-4,0
ALOS-4 (DAICHI-4),2024-123A,2026-07-02T13:53:29.463936,14.79475374,.00016159,97.9220,280.5340,97.3123,262.8272,0,U,60182,999,10815,.24175446E-3,.1755E-4,0
LEGION 3,2024-146A,2026-07-02T14:46:43.167360,15.15584285,.00087978,45.0022,307.8109,269.5944,90.3926,0,U,60452,999,10436,.27426104E-3,.5038E-4,0
LEGION 4,2024-146B,2026-07-02T14:50:26.330784,15.16156870,.00119099,45.0025,39.6997,34.1545,326.0097,0,U,60453,999,10321,.26127101E-3,.4871E-4,0
SENTINEL-2C,2024-157A,2026-07-02T11:41:35.358720,14.30811725,.00009085,98.5685,258.0522,89.1020,271.0267,0,U,60989,999,9517,.64097823E-4,.124E-5,0
IONOSFERA-M 1,2024-199A,2026-07-02T14:17:01.476672,14.22757190,.00022107,98.7152,56.6034,89.9004,270.2428,0,U,61735,999,12989,.52147227E-4,.73E-6,0
